{"type": "FeatureCollection", "features": [ {"type": "Feature", "properties": {"norad_id": 66629, "name": "STARLINK-35956", "group": "last-30-days", "lat": -4.487901906635594, "lon": 17.921528067237123, "alt_km": 399.08041889557626, "timestamp": "2025-12-11T05:00:25.076033+00:00", "meta": {"OBJECT_NAME": "STARLINK-35956", "OBJECT_ID": "2025-271N", "EPOCH": "2025-12-10T22:00:03.000096", "MEAN_MOTION": 15.5789351, "ECCENTRICITY": 8.847e-05, "INCLINATION": 53.1602, "RA_OF_ASC_NODE": 195.9609, "ARG_OF_PERICENTER": 93.3864, "MEAN_ANOMALY": 254.6498, "EPHEMERIS_TYPE": 0, "CLASSIFICATION_TYPE": "U", "NORAD_CAT_ID": 66629, "ELEMENT_SET_NO": 999, "REV_AT_EPOCH": 395, "BSTAR": -0.030467609, "MEAN_MOTION_DOT": -0.02066041, "MEAN_MOTION_DDOT": 0}, "tle": {"line1": "1 66629U 25271N   25344.91670139 -.02066041  00000+0 -30468-1 0  9992", "line2": "2 66629  53.1602 195.9609 0000884  93.3864 254.6498 15.57893510  3959"}}, "geometry": {"type": "Point", "coordinates": [17.921528067237123, -4.487901906635594]}}, {"type": "Feature", "properties": {"norad_id": 66630, "name": "STARLINK-35949", "group": "last-30-days", "lat": -6.016919177263228, "lon": 19.075105021117885, "alt_km": 399.3030554435645, "timestamp": "2025-12-11T05:00:25.076043+00:00", "meta": {"OBJECT_NAME": "STARLINK-35949", "OBJECT_ID": "2025-271P", "EPOCH": "2025-12-10T22:00:03.000096", "MEAN_MOTION": 15.5789564, "ECCENTRICITY": 8.058e-05, "INCLINATION": 53.1601, "RA_OF_ASC_NODE": 195.9556, "ARG_OF_PERICENTER": 92.237, "MEAN_ANOMALY": 257.7139, "EPHEMERIS_TYPE": 0, "CLASSIFICATION_TYPE": "U", "NORAD_CAT_ID": 66630, "ELEMENT_SET_NO": 999, "REV_AT_EPOCH": 395, "BSTAR": -0.030479128, "MEAN_MOTION_DOT": -0.02066839, "MEAN_MOTION_DDOT": 0}, "tle": {"line1": "1 66630U 25271P   25344.91670139 -.02066839  00000+0 -30479-1 0  9991", "line2": "2 66630  53.1601 195.9556 0000805  92.2370 257.7139 15.57895640  3956"}}, "geometry": {"type": "Point", "coordinates": [19.075105021117885, -6.016919177263228]}}, {"type": "Feature", "properties": {"norad_id": 66631, "name": "STARLINK-35965", "group": "last-30-days", "lat": -7.544401835101053, "lon": 20.23823828969514, "alt_km": 399.53627352404783, "timestamp": "2025-12-11T05:00:25.076053+00:00", "meta": {"OBJECT_NAME": "STARLINK-35965", "OBJECT_ID": "2025-271Q", "EPOCH": "2025-12-10T22:00:03.000096", "MEAN_MOTION": 15.5789379, "ECCENTRICITY": 8.14e-05, "INCLINATION": 53.16, "RA_OF_ASC_NODE": 195.9526, "ARG_OF_PERICENTER": 90.6571, "MEAN_ANOMALY": 261.2123, "EPHEMERIS_TYPE": 0, "CLASSIFICATION_TYPE": "U", "NORAD_CAT_ID": 66631, "ELEMENT_SET_NO": 999, "REV_AT_EPOCH": 395, "BSTAR": -0.030462594, "MEAN_MOTION_DOT": -0.02065714, "MEAN_MOTION_DDOT": 0}, "tle": {"line1": "1 66631U 25271Q   25344.91670139 -.02065714  00000+0 -30463-1 0  9996", "line2": "2 66631  53.1600 195.9526 0000814  90.6571 261.2123 15.57893790  3955"}}, "geometry": {"type": "Point", "coordinates": [20.23823828969514, -7.544401835101053]}}, {"type": "Feature", "properties": {"norad_id": 66632, "name": "STARLINK-35973", "group": "last-30-days", "lat": -9.069385075554353, "lon": 21.408763018252376, "alt_km": 399.77233996776704, "timestamp": "2025-12-11T05:00:25.076065+00:00", "meta": {"OBJECT_NAME": "STARLINK-35973", "OBJECT_ID": "2025-271R", "EPOCH": "2025-12-10T22:00:03.000096", "MEAN_MOTION": 15.57893682, "ECCENTRICITY": 8.906e-05, "INCLINATION": 53.1601, "RA_OF_ASC_NODE": 195.9483, "ARG_OF_PERICENTER": 88.7913, "MEAN_ANOMALY": 264.9949, "EPHEMERIS_TYPE": 0, "CLASSIFICATION_TYPE": "U", "NORAD_CAT_ID": 66632, "ELEMENT_SET_NO": 999, "REV_AT_EPOCH": 389, "BSTAR": -0.030441966, "MEAN_MOTION_DOT": -0.02064505, "MEAN_MOTION_DDOT": 0}, "tle": {"line1": "1 66632U 25271R   25344.91670139 -.02064505  00000+0 -30442-1 0  9991", "line2": "2 66632  53.1601 195.9483 0000890  88.7913 264.9949 15.57893682  3890"}}, "geometry": {"type": "Point", "coordinates": [21.408763018252376, -9.069385075554353]}}, {"type": "Feature", "properties": {"norad_id": 66633, "name": "STARLINK-35948", "group": "last-30-days", "lat": -10.588881318583796, "lon": 22.58728681881334, "alt_km": 399.9082302047791, "timestamp": "2025-12-11T05:00:25.076075+00:00", "meta": {"OBJECT_NAME": "STARLINK-35948", "OBJECT_ID": "2025-271S", "EPOCH": "2025-12-10T22:00:03.000096", "MEAN_MOTION": 15.57892047, "ECCENTRICITY": 8.168e-05, "INCLINATION": 53.1601, "RA_OF_ASC_NODE": 195.9433, "ARG_OF_PERICENTER": 92.2618, "MEAN_ANOMALY": 263.4423, "EPHEMERIS_TYPE": 0, "CLASSIFICATION_TYPE": "U", "NORAD_CAT_ID": 66633, "ELEMENT_SET_NO": 999, "REV_AT_EPOCH": 395, "BSTAR": -0.030424745, "MEAN_MOTION_DOT": -0.02063303, "MEAN_MOTION_DDOT": 0}, "tle": {"line1": "1 66633U 25271S   25344.91670139 -.02063303  00000+0 -30425-1 0  9998", "line2": "2 66633  53.1601 195.9433 0000816  92.2618 263.4423 15.57892047  3958"}}, "geometry": {"type": "Point", "coordinates": [22.58728681881334, -10.588881318583796]}}, {"type": "Feature", "properties": {"norad_id": 66634, "name": "STARLINK-35967", "group": "last-30-days", "lat": -12.10472473078451, "lon": 23.778856967668045, "alt_km": 400.1355195732185, "timestamp": "2025-12-11T05:00:25.076085+00:00", "meta": {"OBJECT_NAME": "STARLINK-35967", "OBJECT_ID": "2025-271T", "EPOCH": "2025-12-10T22:00:03.000096", "MEAN_MOTION": 15.57893128, "ECCENTRICITY": 8.134e-05, "INCLINATION": 53.16, "RA_OF_ASC_NODE": 195.9389, "ARG_OF_PERICENTER": 89.5556, "MEAN_ANOMALY": 268.0652, "EPHEMERIS_TYPE": 0, "CLASSIFICATION_TYPE": "U", "NORAD_CAT_ID": 66634, "ELEMENT_SET_NO": 999, "REV_AT_EPOCH": 388, "BSTAR": -0.030448106, "MEAN_MOTION_DOT": -0.02064791, "MEAN_MOTION_DDOT": 0}, "tle": {"line1": "1 66634U 25271T   25344.91670139 -.02064791  00000+0 -30448-1 0  9996", "line2": "2 66634  53.1600 195.9389 0000813  89.5556 268.0652 15.57893128  3883"}}, "geometry": {"type": "Point", "coordinates": [23.778856967668045, -12.10472473078451]}}, {"type": "Feature", "properties": {"norad_id": 66635, "name": "STARLINK-35955", "group": "last-30-days", "lat": -13.614643391154107, "lon": 24.98442800357885, "alt_km": 400.40085825703136, "timestamp": "2025-12-11T05:00:25.076095+00:00", "meta": {"OBJECT_NAME": "STARLINK-35955", "OBJECT_ID": "2025-271U", "EPOCH": "2025-12-10T22:00:03.000096", "MEAN_MOTION": 15.5789116, "ECCENTRICITY": 8.293e-05, "INCLINATION": 53.16, "RA_OF_ASC_NODE": 195.9355, "ARG_OF_PERICENTER": 83.7507, "MEAN_ANOMALY": 275.7878, "EPHEMERIS_TYPE": 0, "CLASSIFICATION_TYPE": "U", "NORAD_CAT_ID": 66635, "ELEMENT_SET_NO": 999, "REV_AT_EPOCH": 395, "BSTAR": -0.030403087, "MEAN_MOTION_DOT": -0.02061938, "MEAN_MOTION_DDOT": 0}, "tle": {"line1": "1 66635U 25271U   25344.91670139 -.02061938  00000+0 -30403-1 0  9998", "line2": "2 66635  53.1600 195.9355 0000829  83.7507 275.7878 15.57891160  3953"}}, "geometry": {"type": "Point", "coordinates": [24.98442800357885, -13.614643391154107]}}, {"type": "Feature", "properties": {"norad_id": 66636, "name": "STARLINK-35968", "group": "last-30-days", "lat": -15.12006000333254, "lon": 26.205753793844437, "alt_km": 400.5246166753268, "timestamp": "2025-12-11T05:00:25.076126+00:00", "meta": {"OBJECT_NAME": "STARLINK-35968", "OBJECT_ID": "2025-271V", "EPOCH": "2025-12-10T22:00:03.000096", "MEAN_MOTION": 15.57895225, "ECCENTRICITY": 8.825e-05, "INCLINATION": 53.16, "RA_OF_ASC_NODE": 195.9312, "ARG_OF_PERICENTER": 88.4601, "MEAN_ANOMALY": 272.9934, "EPHEMERIS_TYPE": 0, "CLASSIFICATION_TYPE": "U", "NORAD_CAT_ID": 66636, "ELEMENT_SET_NO": 999, "REV_AT_EPOCH": 395, "BSTAR": -0.030492384, "MEAN_MOTION_DOT": -0.02067659, "MEAN_MOTION_DDOT": 0}, "tle": {"line1": "1 66636U 25271V   25344.91670139 -.02067659  00000+0 -30492-1 0  9993", "line2": "2 66636  53.1600 195.9312 0000882  88.4601 272.9934 15.57895225  3951"}}, "geometry": {"type": "Point", "coordinates": [26.205753793844437, -15.12006000333254]}}, {"type": "Feature", "properties": {"norad_id": 66637, "name": "STARLINK-35953", "group": "last-30-days", "lat": -16.61653418987797, "lon": 27.443197548804573, "alt_km": 400.7022878881944, "timestamp": "2025-12-11T05:00:25.076141+00:00", "meta": {"OBJECT_NAME": "STARLINK-35953", "OBJECT_ID": "2025-271W", "EPOCH": "2025-12-10T22:00:03.000096", "MEAN_MOTION": 15.57891061, "ECCENTRICITY": 7.864e-05, "INCLINATION": 53.16, "RA_OF_ASC_NODE": 195.9274, "ARG_OF_PERICENTER": 86.3185, "MEAN_ANOMALY": 277.0547, "EPHEMERIS_TYPE": 0, "CLASSIFICATION_TYPE": "U", "NORAD_CAT_ID": 66637, "ELEMENT_SET_NO": 999, "REV_AT_EPOCH": 395, "BSTAR": -0.030430546, "MEAN_MOTION_DOT": -0.02063567, "MEAN_MOTION_DDOT": 0}, "tle": {"line1": "1 66637U 25271W   25344.91670139 -.02063567  00000+0 -30431-1 0  9991", "line2": "2 66637  53.1600 195.9274 0000786  86.3185 277.0547 15.57891061  3956"}}, "geometry": {"type": "Point", "coordinates": [27.443197548804573, -16.61653418987797]}}, {"type": "Feature", "properties": {"norad_id": 66638, "name": "STARLINK-35972", "group": "last-30-days", "lat": -18.107475281994535, "lon": 28.701858138399423, "alt_km": 400.83921064765127, "timestamp": "2025-12-11T05:00:25.076151+00:00", "meta": {"OBJECT_NAME": "STARLINK-35972", "OBJECT_ID": "2025-271X", "EPOCH": "2025-12-10T22:00:03.000096", "MEAN_MOTION": 15.57892778, "ECCENTRICITY": 8.548e-05, "INCLINATION": 53.16, "RA_OF_ASC_NODE": 195.9237, "ARG_OF_PERICENTER": 89.5528, "MEAN_ANOMALY": 275.7362, "EPHEMERIS_TYPE": 0, "CLASSIFICATION_TYPE": "U", "NORAD_CAT_ID": 66638, "ELEMENT_SET_NO": 999, "REV_AT_EPOCH": 395, "BSTAR": -0.030454248, "MEAN_MOTION_DOT": -0.02065163, "MEAN_MOTION_DDOT": 0}, "tle": {"line1": "1 66638U 25271X   25344.91670139 -.02065163  00000+0 -30454-1 0  9991", "line2": "2 66638  53.1600 195.9237 0000854  89.5528 275.7362 15.57892778  3954"}}, "geometry": {"type": "Point", "coordinates": [28.701858138399423, -18.107475281994535]}}]}